1 43013U 17073A   26138.89040107  .00000021  00000+0  31010-4 0  9999
2 43013  98.7763  78.6153 0001315  44.8506 315.2776 14.19505675440316
